STARLINK-3547           
1 51889U 22022AP  25209.52516947 -.00000594  00000+0 -19271-4 0  9999
2 51889  53.2174 285.4353 0001157  99.1907 260.9216 15.08834077189405
STARLINK-3549           
1 51891U 22022AR  25209.52149115 -.00000235  00000+0  33224-5 0  9997
2 51891  53.2168 285.4523 0001163 110.3989 249.7128 15.08846780189459
STARLINK-3587           
1 51892U 22022AS  25209.52884965 -.00000347  00000+0 -36935-5 0  9994
2 51892  53.2181 285.4186 0001064  85.6044 274.5069 15.08836278189402
STARLINK-3579           
1 51893U 22022AT  25209.44788965 -.00000389  00000+0 -63825-5 0  9993
2 51893  53.2175 285.7838 0000943  86.7960 273.3140 15.08833850189452
STARLINK-3595           
1 51894U 22022AU  25209.51781178 -.00000860  00000+0 -35982-4 0  9997
2 51894  53.2177 285.4684 0001361  78.1775 281.9370 15.08832211189466
STARLINK-3594           
1 51895U 22022AV  25209.44420993 -.00000317  00000+0 -18599-5 0  9998
2 51895  53.2176 285.8003 0001081  88.8730 271.2386 15.08833208189391
STARLINK-3593           
1 51896U 22022AW  25209.53255523 -.00000067  00000+0  13852-4 0  9991
2 51896  53.2178 285.6220 0001106  84.4464 275.6654 15.08838318189457
STARLINK-3598           
1 51897U 22022AX  25209.50676932 -.00000379  00000+0 -57459-5 0  9999
2 51897  53.2183 285.5201 0000787  92.7857 267.3225 15.08832416189404
STARLINK-3597           
1 51898U 22022AY  25209.50308743 -.00000924  00000+0 -39970-4 0  9995
2 51898  53.2181 285.5357 0001225  85.1121 275.0011 15.08833725189451
STARLINK-3700           
1 51956U 22025A   25209.53853671 -.00000035  00000+0  16547-4 0  9998
2 51956  53.0560 307.8773 0001199  94.1795 265.9331 15.06396217187260
STARLINK-3694           
1 51957U 22025B   25209.61631888 -.00001311  00000+0 -69134-4 0  9991
2 51957  53.0560 321.7734 0001175  79.8983 280.2139 15.06388779187075
STARLINK-3692           
1 51958U 22025C   25209.53485185 -.00000122  00000+0  10725-4 0  9990
2 51958  53.0561 307.8972 0001154  90.0386 270.0735 15.06397192187264
STARLINK-3704           
1 51959U 22025D   25209.61999935 -.00002039  00000+0 -11806-3 0  9993
2 51959  53.0566 321.7308 0001230  94.7595 265.3535 15.06382160187079
STARLINK-3691           
1 51960U 22025E   25209.61262568 -.00000060  00000+0  14870-4 0  9996
2 51960  53.0578 321.7686 0001304  88.7727 271.3411 15.06393439187076
STARLINK-3697           
1 51962U 22025G   25209.58044378 -.00000412  00000+0 -87609-5 0  9994
2 51962  53.0573 312.4948 0001353  91.5332 268.5812 15.06394018187201
STARLINK-3675           
1 51963U 22025H   25209.59013394  .00000253  00000+0  35888-4 0  9992
2 51963  53.0560 307.5901 0001154  88.2114 271.9007 15.06400030187275
STARLINK-3690           
1 51964U 22025J   25209.55934507 -.00001074  00000+0 -53225-4 0  9996
2 51964  53.0557 313.1765 0000909  96.8375 263.2718 15.06393908187193
