[{"OBJECT_NAME":"STARLINK-3547","OBJECT_ID":"2022-022AP","EPOCH":"2025-07-28T12:36:14.642208","MEAN_MOTION":15.08834077,"ECCENTRICITY":0.0001157,"INCLINATION":53.2174,"RA_OF_ASC_NODE":285.4353,"ARG_OF_PERICENTER":99.1907,"MEAN_ANOMALY":260.9216,"EPHEMERIS_TYPE":0,"CLASSIFICATION_TYPE":"U","NORAD_CAT_ID":51889,"ELEMENT_SET_NO":999,"REV_AT_EPOCH":18940,"BSTAR":-1.9271e-5,"MEAN_MOTION_DOT":-5.94e-6,"MEAN_MOTION_DDOT":0},{"OBJECT_NAME":"STARLINK-3549","OBJECT_ID":"2022-022AR","EPOCH":"2025-07-28T12:30:56.835360","MEAN_MOTION":15.0884678,"ECCENTRICITY":0.0001163,"INCLINATION":53.2168,"RA_OF_ASC_NODE":285.4523,"ARG_OF_PERICENTER":110.3989,"MEAN_ANOMALY":249.7128,"EPHEMERIS_TYPE":0,"CLASSIFICATION_TYPE":"U","NORAD_CAT_ID":51891,"ELEMENT_SET_NO":999,"REV_AT_EPOCH":18945,"BSTAR":3.3224e-6,"MEAN_MOTION_DOT":-2.35e-6,"MEAN_MOTION_DDOT":0},{"OBJECT_NAME":"STARLINK-3587","OBJECT_ID":"2022-022AS","EPOCH":"2025-07-28T12:41:32.609760","MEAN_MOTION":15.08836278,"ECCENTRICITY":0.0001064,"INCLINATION":53.2181,"RA_OF_ASC_NODE":285.4186,"ARG_OF_PERICENTER":85.6044,"MEAN_ANOMALY":274.5069,"EPHEMERIS_TYPE":0,"CLASSIFICATION_TYPE":"U","NORAD_CAT_ID":51892,"ELEMENT_SET_NO":999,"REV_AT_EPOCH":18940,"BSTAR":-3.6935e-6,"MEAN_MOTION_DOT":-3.47e-6,"MEAN_MOTION_DDOT":0},{"OBJECT_NAME":"STARLINK-3579","OBJECT_ID":"2022-022AT","EPOCH":"2025-07-28T10:44:57.665760","MEAN_MOTION":15.0883385,"ECCENTRICITY":9.43e-5,"INCLINATION":53.2175,"RA_OF_ASC_NODE":285.7838,"ARG_OF_PERICENTER":86.796,"MEAN_ANOMALY":273.314,"EPHEMERIS_TYPE":0,"CLASSIFICATION_TYPE":"U","NORAD_CAT_ID":51893,"ELEMENT_SET_NO":999,"REV_AT_EPOCH":18945,"BSTAR":-6.3825e-6,"MEAN_MOTION_DOT":-3.89e-6,"MEAN_MOTION_DDOT":0},{"OBJECT_NAME":"STARLINK-3595","OBJECT_ID":"2022-022AU","EPOCH":"2025-07-28T12:25:38.937792","MEAN_MOTION":15.08832211,"ECCENTRICITY":0.0001361,"INCLINATION":53.2177,"RA_OF_ASC_NODE":285.4684,"ARG_OF_PERICENTER":78.1775,"MEAN_ANOMALY":281.937,"EPHEMERIS_TYPE":0,"CLASSIFICATION_TYPE":"U","NORAD_CAT_ID":51894,"ELEMENT_SET_NO":999,"REV_AT_EPOCH":18946,"BSTAR":-3.5982e-5,"MEAN_MOTION_DOT":-8.6e-6,"MEAN_MOTION_DDOT":0},{"OBJECT_NAME":"STARLINK-3594","OBJECT_ID":"2022-022AV","EPOCH":"2025-07-28T10:39:39.737952","MEAN_MOTION":15.08833208,"ECCENTRICITY":0.0001081,"INCLINATION":53.2176,"RA_OF_ASC_NODE":285.8003,"ARG_OF_PERICENTER":88.873,"MEAN_ANOMALY":271.2386,"EPHEMERIS_TYPE":0,"CLASSIFICATION_TYPE":"U","NORAD_CAT_ID":51895,"ELEMENT_SET_NO":999,"REV_AT_EPOCH":18939,"BSTAR":-1.8599e-6,"MEAN_MOTION_DOT":-3.17e-6,"MEAN_MOTION_DDOT":0},{"OBJECT_NAME":"STARLINK-3593","OBJECT_ID":"2022-022AW","EPOCH":"2025-07-28T12:46:52.771872","MEAN_MOTION":15.08838318,"ECCENTRICITY":0.0001106,"INCLINATION":53.2178,"RA_OF_ASC_NODE":285.622,"ARG_OF_PERICENTER":84.4464,"MEAN_ANOMALY":275.6654,"EPHEMERIS_TYPE":0,"CLASSIFICATION_TYPE":"U","NORAD_CAT_ID":51896,"ELEMENT_SET_NO":999,"REV_AT_EPOCH":18945,"BSTAR":1.3852e-5,"MEAN_MOTION_DOT":-6.7e-7,"MEAN_MOTION_DDOT":0},{"OBJECT_NAME":"STARLINK-3598","OBJECT_ID":"2022-022AX","EPOCH":"2025-07-28T12:09:44.869248","MEAN_MOTION":15.08832416,"ECCENTRICITY":7.87e-5,"INCLINATION":53.2183,"RA_OF_ASC_NODE":285.5201,"ARG_OF_PERICENTER":92.7857,"MEAN_ANOMALY":267.3225,"EPHEMERIS_TYPE":0,"CLASSIFICATION_TYPE":"U","NORAD_CAT_ID":51897,"ELEMENT_SET_NO":999,"REV_AT_EPOCH":18940,"BSTAR":-5.7459e-6,"MEAN_MOTION_DOT":-3.79e-6,"MEAN_MOTION_DDOT":0},{"OBJECT_NAME":"STARLINK-3597","OBJECT_ID":"2022-022AY","EPOCH":"2025-07-28T12:04:26.753952","MEAN_MOTION":15.08833725,"ECCENTRICITY":0.0001225,"INCLINATION":53.2181,"RA_OF_ASC_NODE":285.5357,"ARG_OF_PERICENTER":85.1121,"MEAN_ANOMALY":275.0011,"EPHEMERIS_TYPE":0,"CLASSIFICATION_TYPE":"U","NORAD_CAT_ID":51898,"ELEMENT_SET_NO":999,"REV_AT_EPOCH":18945,"BSTAR":-3.997e-5,"MEAN_MOTION_DOT":-9.24e-6,"MEAN_MOTION_DDOT":0},{"OBJECT_NAME":"STARLINK-3700","OBJECT_ID":"2022-025A","EPOCH":"2025-07-28T12:55:29.571744","MEAN_MOTION":15.06396217,"ECCENTRICITY":0.0001199,"INCLINATION":53.056,"RA_OF_ASC_NODE":307.8773,"ARG_OF_PERICENTER":94.1795,"MEAN_ANOMALY":265.9331,"EPHEMERIS_TYPE":0,"CLASSIFICATION_TYPE":"U","NORAD_CAT_ID":51956,"ELEMENT_SET_NO":999,"REV_AT_EPOCH":18726,"BSTAR":1.6547e-5,"MEAN_MOTION_DOT":-3.5e-7,"MEAN_MOTION_DDOT":0},{"OBJECT_NAME":"STARLINK-3694","OBJECT_ID":"2022-025B","EPOCH":"2025-07-28T14:47:29.951232","MEAN_MOTION":15.06388779,"ECCENTRICITY":0.0001175,"INCLINATION":53.056,"RA_OF_ASC_NODE":321.7734,"ARG_OF_PERICENTER":79.8983,"MEAN_ANOMALY":280.2139,"EPHEMERIS_TYPE":0,"CLASSIFICATION_TYPE":"U","NORAD_CAT_ID":51957,"ELEMENT_SET_NO":999,"REV_AT_EPOCH":18707,"BSTAR":-6.9134e-5,"MEAN_MOTION_DOT":-1.311e-5,"MEAN_MOTION_DDOT":0},{"OBJECT_NAME":"STARLINK-3692","OBJECT_ID":"2022-025C","EPOCH":"2025-07-28T12:50:11.199840","MEAN_MOTION":15.06397192,"ECCENTRICITY":0.0001154,"INCLINATION":53.0561,"RA_OF_ASC_NODE":307.8972,"ARG_OF_PERICENTER":90.0386,"MEAN_ANOMALY":270.0735,"EPHEMERIS_TYPE":0,"CLASSIFICATION_TYPE":"U","NORAD_CAT_ID":51958,"ELEMENT_SET_NO":999,"REV_AT_EPOCH":18726,"BSTAR":1.0725e-5,"MEAN_MOTION_DOT":-1.22e-6,"MEAN_MOTION_DDOT":0},{"OBJECT_NAME":"STARLINK-3704","OBJECT_ID":"2022-025D","EPOCH":"2025-07-28T14:52:47.943840","MEAN_MOTION":15.0638216,"ECCENTRICITY":0.000123,"INCLINATION":53.0566,"RA_OF_ASC_NODE":321.7308,"ARG_OF_PERICENTER":94.7595,"MEAN_ANOMALY":265.3535,"EPHEMERIS_TYPE":0,"CLASSIFICATION_TYPE":"U","NORAD_CAT_ID":51959,"ELEMENT_SET_NO":999,"REV_AT_EPOCH":18707,"BSTAR":-0.00011806,"MEAN_MOTION_DOT":-2.039e-5,"MEAN_MOTION_DDOT":0},{"OBJECT_NAME":"STARLINK-3691","OBJECT_ID":"2022-025E","EPOCH":"2025-07-28T14:42:10.858752","MEAN_MOTION":15.06393439,"ECCENTRICITY":0.0001304,"INCLINATION":53.0578,"RA_OF_ASC_NODE":321.7686,"ARG_OF_PERICENTER":88.7727,"MEAN_ANOMALY":271.3411,"EPHEMERIS_TYPE":0,"CLASSIFICATION_TYPE":"U","NORAD_CAT_ID":51960,"ELEMENT_SET_NO":999,"REV_AT_EPOCH":18816,"BSTAR":1.487e-5,"MEAN_MOTION_DOT":-6.0e-7,"MEAN_MOTION_DDOT":0},{"OBJECT_NAME":"STARLINK-3697","OBJECT_ID":"2022-025G","EPOCH":"2025-07-28T13:55:50.342592","MEAN_MOTION":15.06394018,"ECCENTRICITY":0.0001353,"INCLINATION":53.0573,"RA_OF_ASC_NODE":312.4948,"ARG_OF_PERICENTER":91.5332,"MEAN_ANOMALY":268.5812,"EPHEMERIS_TYPE":0,"CLASSIFICATION_TYPE":"U","NORAD_CAT_ID":51962,"ELEMENT_SET_NO":999,"REV_AT_EPOCH":18720,"BSTAR":-8.7609e-6,"MEAN_MOTION_DOT":-4.12e-6,"MEAN_MOTION_DDOT":0},{"OBJECT_NAME":"STARLINK-3675","OBJECT_ID":"2022-025H","EPOCH":"2025-07-28T14:09:47.572416","MEAN_MOTION":15.0640003,"ECCENTRICITY":0.0001154,"INCLINATION":53.056,"RA_OF_ASC_NODE":307.5901,"ARG_OF_PERICENTER":88.2114,"MEAN_ANOMALY":271.9007,"EPHEMERIS_TYPE":0,"CLASSIFICATION_TYPE":"U","NORAD_CAT_ID":51963,"ELEMENT_SET_NO":999,"REV_AT_EPOCH":18727,"BSTAR":3.5888e-5,"MEAN_MOTION_DOT":2.53e-6,"MEAN_MOTION_DDOT":0},{"OBJECT_NAME":"STARLINK-3690","OBJECT_ID":"2022-025J","EPOCH":"2025-07-28T13:25:27.414048","MEAN_MOTION":15.06393908,"ECCENTRICITY":9.09e-5,"INCLINATION":53.0557,"RA_OF_ASC_NODE":313.1765,"ARG_OF_PERICENTER":96.8375,"MEAN_ANOMALY":263.2718,"EPHEMERIS_TYPE":0,"CLASSIFICATION_TYPE":"U","NORAD_CAT_ID":51964,"ELEMENT_SET_NO":999,"REV_AT_EPOCH":18719,"BSTAR":-5.3225e-5,"MEAN_MOTION_DOT":-1.074e-5,"MEAN_MOTION_DDOT":0}]
